{
  "type": "FeatureCollection",
  "properties": {
    "title": "土砂災害警戒区域（サンプルデータ・架空）",
    "isSample": true,
    "disclaimer": "このデータは開発用のサンプル（架空の形状）です。実際の指定区域とは一致しません。",
    "lastUpdated": "2026-08-15"
  },
  "features": [
    {
      "type": "Feature",
      "properties": {
        "id": "sample-1",
        "name": "八木ケ丘付近(サンプル)",
        "kind": "debris_flow",
        "category": "special",
        "isSample": true
      },
      "geometry": {
        "type": "Polygon",
        "coordinates": [
          [
            [
              132.44518305845173,
              34.459
            ],
            [
              132.44423286196363,
              34.46023248108319
            ],
            [
              132.44205117333837,
              34.45994853353109
            ],
            [
              132.44081143568917,
              34.459
            ],
            [
              132.44176854782148,
              34.457768928266354
            ],
            [
              132.44394749718109,
              34.45805279553875
            ],
            [
              132.44519406861335,
              34.459
            ]
          ]
        ]
      }
    },
    {
      "type": "Feature",
      "properties": {
        "id": "sample-2",
        "name": "八木付近(サンプル)",
        "kind": "steep_slope",
        "category": "caution",
        "isSample": true
      },
      "geometry": {
        "type": "Polygon",
        "coordinates": [
          [
            [
              132.4476979851946,
              34.4615
            ],
            [
              132.44695892135164,
              34.46245859639804
            ],
            [
              132.4452620016095,
              34.46223774830195
            ],
            [
              132.44429773234228,
              34.4615
            ],
            [
              132.4450421751807,
              34.46054249976272
            ],
            [
              132.4467369643191,
              34.46076328541903
            ],
            [
              132.44770654891005,
              34.4615
            ]
          ]
        ]
      }
    },
    {
      "type": "Feature",
      "properties": {
        "id": "sample-3",
        "name": "緑井付近(サンプル)",
        "kind": "debris_flow",
        "category": "caution",
        "isSample": true
      },
      "geometry": {
        "type": "Polygon",
        "coordinates": [
          [
            [
              132.45544064749356,
              34.4655
            ],
            [
              132.45459596262882,
              34.466595538740606
            ],
            [
              132.45265653285358,
              34.46634314091652
            ],
            [
              132.45155445802834,
              34.4655
            ],
            [
              132.45240529061104,
              34.46440571401453
            ],
            [
              132.4543422852939,
              34.46465804047888
            ],
            [
              132.45545043506593,
              34.4655
            ]
          ]
        ]
      }
    },
    {
      "type": "Feature",
      "properties": {
        "id": "sample-4",
        "name": "可部付近(サンプル)",
        "kind": "landslide",
        "category": "caution",
        "isSample": true
      },
      "geometry": {
        "type": "Polygon",
        "coordinates": [
          [
            [
              132.50142747691078,
              34.5228
            ],
            [
              132.5003708950159,
              34.52416942342576
            ],
            [
              132.49794494129938,
              34.52385392614565
            ],
            [
              132.49656640078592,
              34.5228
            ],
            [
              132.4976306726108,
              34.521432142518165
            ],
            [
              132.50005358036944,
              34.521747550598604
            ],
            [
              132.5014397197864,
              34.5228
            ]
          ]
        ]
      }
    },
    {
      "type": "Feature",
      "properties": {
        "id": "sample-5",
        "name": "可部東付近(サンプル)",
        "kind": "steep_slope",
        "category": "special",
        "isSample": true
      },
      "geometry": {
        "type": "Polygon",
        "coordinates": [
          [
            [
              132.5033206601439,
              34.5252
            ],
            [
              132.5025282008887,
              34.526227067569316
            ],
            [
              132.50070868317337,
              34.525990444609235
            ],
            [
              132.4996747479963,
              34.5252
            ],
            [
              132.5004729748652,
              34.52417410688862
            ],
            [
              132.50229020804628,
              34.52441066294895
            ],
            [
              132.50332984256522,
              34.5252
            ]
          ]
        ]
      }
    },
    {
      "type": "Feature",
      "properties": {
        "id": "sample-6",
        "name": "高陽付近(サンプル)",
        "kind": "debris_flow",
        "category": "special",
        "isSample": true
      },
      "geometry": {
        "type": "Polygon",
        "coordinates": [
          [
            [
              132.52256243224008,
              34.4855
            ],
            [
              132.5216647394321,
              34.4866640099119
            ],
            [
              132.5196036013279,
              34.4863958372238
            ],
            [
              132.51843236613036,
              34.4855
            ],
            [
              132.51933659245444,
              34.484337321140444
            ],
            [
              132.52139514265278,
              34.48460541800882
            ],
            [
              132.52257283402858,
              34.4855
            ]
          ]
        ]
      }
    },
    {
      "type": "Feature",
      "properties": {
        "id": "sample-7",
        "name": "安芸区矢野付近(サンプル)",
        "kind": "debris_flow",
        "category": "caution",
        "isSample": true
      },
      "geometry": {
        "type": "Polygon",
        "coordinates": [
          [
            [
              132.52243812019816,
              34.3565
            ],
            [
              132.52159453536223,
              34.357595538740604
            ],
            [
              132.51965763129658,
              34.35734314091652
            ],
            [
              132.51855699169784,
              34.3565
            ],
            [
              132.51940671624553,
              34.35540571401453
            ],
            [
              132.52134118839004,
              34.35565804047888
            ],
            [
              132.5224478950242,
              34.3565
            ]
          ]
        ]
      }
    },
    {
      "type": "Feature",
      "properties": {
        "id": "sample-8",
        "name": "坂町小屋浦付近(サンプル)",
        "kind": "debris_flow",
        "category": "special",
        "isSample": true
      },
      "geometry": {
        "type": "Polygon",
        "coordinates": [
          [
            [
              132.46217955342226,
              34.3245
            ],
            [
              132.46123088253083,
              34.325732481083186
            ],
            [
              132.45905269673568,
              34.32544853353109
            ],
            [
              132.45781494955858,
              34.3245
            ],
            [
              132.45877052499077,
              34.32326892826635
            ],
            [
              132.46094597591832,
              34.323552795538745
            ],
            [
              132.46219054590642,
              34.3245
            ]
          ]
        ]
      }
    }
  ]
}